ONEWEB-0709             
1 55172U 23004AJ  26045.97692532  .00000538  00000+0  14814-2 0  9994
2 55172  87.8830  45.3939 0002275 110.7268 249.4104 13.11418913149853
ONEWEB-0710             
1 55173U 23004AK  26045.87060640 -.00000006  00000+0 -48732-4 0  9993
2 55173  87.9109  30.1639 0002050  83.5131 276.6234 13.17649249151471
ONEWEB-0711             
1 55174U 23004AL  26046.02437930 -.00000587  00000+0 -16925-2 0  9993
2 55174  87.8831  45.3654 0002466  75.5103 284.6299 13.11416882149824
ONEWEB-0713             
1 55175U 23004AM  26045.96673973  .00000166  00000+0  43158-3 0  9995
2 55175  87.8839  45.3756 0002178  80.1819 279.9555 13.11420309149801
ONEWEB-0715             
1 55176U 23004AN  26045.96165889 -.00000089  00000+0 -28708-3 0  9998
2 55176  87.8838  45.3771 0002425 100.3554 259.7848 13.11419001149846
ONEWEB-0716             
1 55177U 23004AP  26045.93979405  .00000063  00000+0  12804-3 0  9993
2 55177  87.9110  30.1502 0001664  86.2453 273.8869 13.17648274151484
ONEWEB-0717             
1 55178U 23004AQ  26045.46729869  .00000076  00000+0  16262-3 0  9995
2 55178  87.9114  30.2222 0002546  76.3190 283.8225 13.17647723151471
ONEWEB-0719             
1 55179U 23004AR  26045.93306156 -.00000002  00000+0 -37345-4 0  9995
2 55179  87.9123  30.1107 0001709  80.0688 280.0636 13.17649625151486
ONEWEB-0530             
1 55796U 23029A   26046.19776782  .00000105  00000+0  22611-3 0  9993
2 55796  87.9202 298.8300 0001923  65.9649 294.1686 13.20770817145042
ONEWEB-0534             
1 55797U 23029B   26046.26090028  .00000044  00000+0  77333-4 0  9998
2 55797  87.9201 298.8171 0001545  81.2922 278.8387 13.20770075145057
ONEWEB-0556             
1 55798U 23029C   26046.19145101  .00000048  00000+0  85360-4 0  9997
2 55798  87.9204 298.8328 0001089  48.7125 311.4102 13.20769699145049
ONEWEB-0562             
1 55799U 23029D   26046.25458837  .00000054  00000+0  10011-3 0  9995
2 55799  87.9200 298.8006 0001914  52.4446 307.6861 13.20770209145053
ONEWEB-0563             
1 55800U 23029E   26046.24827340  .00000068  00000+0  13594-3 0  9990
2 55800  87.9203 298.8319 0001391  80.4602 279.6689 13.20770714145046
ONEWEB-0564             
1 55801U 23029F   26046.24196309  .00000072  00000+0  14413-3 0  9991
2 55801  87.9200 298.8053 0001785  68.3534 291.7790 13.20770652145055
ONEWEB-0638             
1 55802U 23029G   26046.22401471 -.00000180  00000+0 -52086-3 0  9999
2 55802  87.9014 314.0847 0001478  60.4417 299.6860 13.14504832143379
ONEWEB-0639             
1 55803U 23029H   26046.27014057  .00000090  00000+0  19191-3 0  9993
2 55803  87.9250 329.2530 0001346 113.4944 246.6331 13.19724884142827
ONEWEB-0640             
1 55804U 23029J   26046.23353076 -.00000133  00000+0 -39443-3 0  9999
2 55804  87.9016 314.0727 0001070  57.7636 302.3598 13.14504964143398
ONEWEB-0641             
1 55805U 23029K   26046.26539384  .00000104  00000+0  22665-3 0  9995
2 55805  87.9254 329.2395 0001739  82.9085 277.2245 13.19723760142831
ONEWEB-0642             
1 55806U 23029L   26046.26065949  .00000044  00000+0  77502-4 0  9991
2 55806  87.9249 329.2562 0001630 106.5835 253.5477 13.19724920142820
ONEWEB-0643             
1 55807U 23029M   26046.27951828  .00000202  00000+0  50959-3 0  9995
2 55807  87.9020 314.0506 0001757 101.2352 258.8976 13.14503998143372
ONEWEB-0644             
1 55808U 23029N   26046.25592585  .00000043  00000+0  74188-4 0  9999
2 55808  87.9245 329.2654 0001703  87.9909 272.1419 13.19724484142823
ONEWEB-0645             
1 55809U 23029P   26046.27803559  .00000036  00000+0  56842-4 0  9997
2 55809  87.9241 329.2530 0001320  86.2221 273.9063 13.19724926142822
ONEWEB-0646             
1 55810U 23029Q   26046.21959375  .00000074  00000+0  15211-3 0  9997
2 55810  87.9251 329.2628 0001724  89.7691 270.3639 13.19724743142805
ONEWEB-0648             
1 55811U 23029R   26046.24780063  .00000067  00000+0  14599-3 0  9997
2 55811  87.9021 314.0208 0001014 110.1532 249.9707 13.14504063143379
ONEWEB-0649             
1 55812U 23029S   26046.24485895 -.00000041  00000+0 -13493-3 0  9999
2 55812  87.9254 329.2547 0001473  88.3370 271.7931 13.19723810142848
ONEWEB-0650             
1 55813U 23029T   26046.24012948  .00000011  00000+0 -42081-5 0  9998
2 55813  87.9251 329.2589 0001581  95.8758 264.2555 13.19725370142814
ONEWEB-0652             
1 55814U 23029U   26046.22877870 -.00000220  00000+0 -62889-3 0  9999
2 55814  87.9015 314.0419 0001839  74.6063 285.5269 13.14503846143341
ONEWEB-0653             
1 55815U 23029V   26046.21292032 -.00000005  00000+0 -48014-4 0  9996
2 55815  87.9019 314.0347 0001674  70.2775 289.8535 13.14503788143376
ONEWEB-0654             
1 55816U 23029W   26046.20816068  .00000092  00000+0  21496-3 0  9995
2 55816  87.9020 314.0351 0001907  69.5726 290.5609 13.14504233143399
ONEWEB-0656             
1 55817U 23029X   26046.23564955  .00000043  00000+0  74387-4 0  9998
2 55817  87.9212 298.7704 0001902  69.8235 290.3103 13.20770605145053
ONEWEB-0657             
1 55818U 23029Y   26046.23538580  .00000027  00000+0  35572-4 0  9999
2 55818  87.9249 329.2593 0002483  79.1768 280.9644 13.19723642142824
ONEWEB-0658             
1 55819U 23029Z   26046.23064574 -.00000014  00000+0 -67609-4 0  9991
2 55819  87.9263 329.2248 0001708  95.0381 265.0947 13.19723315142833
ONEWEB-0660             
1 55820U 23029AA  26046.26207689  .00000101  00000+0  23925-3 0  9999
2 55820  87.9026 314.0092 0001371  78.1140 282.0144 13.14502124143389
ONEWEB-0661             
1 55821U 23029AB  26046.22083368 -.00000497  00000+0 -13753-2 0  9999
2 55821  87.9016 314.0760 0001361  73.6017 286.5263 13.14503506143367
ONEWEB-0662             
1 55822U 23029AC  26046.25572926  .00000181  00000+0  45281-3 0  9996
2 55822  87.9013 314.0764 0001372  79.4404 280.6880 13.14504162143410
ONEWEB-0663             
1 55823U 23029AD  26046.20253672  .00000117  00000+0  25584-3 0  9999
2 55823  87.9219 298.8491 0001258  91.6247 268.5031 13.20860650145047
ONEWEB-0664             
1 55824U 23029AE  26046.22303919 -.00000001  00000+0 -33252-4 0  9998
2 55824  87.9199 298.8401 0001386  65.9713 294.1566 13.20773824145044
ONEWEB-0665             
1 55825U 23029AF  26046.29379174 -.00000063  00000+0 -20389-3 0  9996
2 55825  87.9019 314.0411 0001362  82.2469 277.8816 13.14503002143396
ONEWEB-0666             
1 55826U 23029AG  26046.21671362  .00000006  00000+0 -17502-4 0  9993
2 55826  87.9205 298.8312 0002338  81.7494 278.3905 13.20770571145053
ONEWEB-0667             
1 55827U 23029AH  26046.21039342  .00000098  00000+0  20816-3 0  9991
2 55827  87.9211 298.7712 0001467  79.0749 281.0550 13.20770343145042
ONEWEB-0669             
1 55828U 23029AJ  26046.12990039  .00000114  00000+0  24794-3 0  9999
2 55828  87.9196 298.8151 0001923  62.6888 297.4441 13.20769255145031
ONEWEB-0670             
1 55829U 23029AK  26046.27158993  .00000273  00000+0  70172-3 0  9998
2 55829  87.9016 314.0648 0001379  67.8969 292.2307 13.14504196143415
ONEWEB-0671             
1 55830U 23029AL  26046.22590659  .00000046  00000+0  82145-4 0  9996
2 55830  87.9253 329.2615 0001585  78.6390 281.4920 13.19724051142812
ONEWEB-0672             
1 55831U 23029AM  26046.20093024  .00000097  00000+0  20638-3 0  9993
2 55831  87.9207 298.7845 0001911  76.8605 283.2741 13.20770747145043
ONEWEB-0673             
1 55832U 23029AN  26046.27882325  .00000071  00000+0  14381-3 0  9991
2 55832  87.9254 329.2360 0001652  77.1876 282.9441 13.19724445142822
ONEWEB-0674             
1 55833U 23029AP  26046.23987524 -.00000095  00000+0 -29082-3 0  9997
2 55833  87.9014 314.0485 0001408  63.7093 296.4182 13.14505189143390
ONEWEB-0675             
1 55834U 23029AQ  26046.29382700  .00000061  00000+0  11945-3 0  9999
2 55834  87.9243 329.2512 0002033  83.3613 276.7752 13.19724782142845
ONEWEB-0720             
1 55835U 23029AR  26046.21011633  .00000125  00000+0  27937-3 0  9995
2 55835  87.9248 329.2674 0001542  87.1280 273.0029 13.19723998142751
ONEWEB-0537             
1 56046U 23043A   26046.06747926  .00000015  00000+0  44200-5 0  9992
2 56046  87.8998 253.0762 0001811  90.8274 269.3064 13.16595056142893
ONEWEB-0538             
1 56047U 23043B   26046.06114584 -.00000027  00000+0 -10357-3 0  9990
2 56047  87.8997 253.0802 0001769 100.2051 259.9280 13.16594645142909
ONEWEB-0546             
1 56048U 23043C   26046.12447481  .00000057  00000+0  11629-3 0  9997
2 56048  87.9004 253.0640 0002202  83.7841 276.3541 13.16595595142903
ONEWEB-0547             
1 56049U 23043D   26046.07489394 -.00000006  00000+0 -46888-4 0  9993
2 56049  87.9180 268.3298 0001560  93.1452 266.9860 13.21827390142092
ONEWEB-0548             
1 56050U 23043E   26046.07300861  .00000086  00000+0  19109-3 0  9997
2 56050  87.8998 253.0750 0001299  73.0936 287.0338 13.16595476142890
ONEWEB-0549             
1 56051U 23043F   26046.14318919 -.00000096  00000+0 -26296-3 0  9997
2 56051  87.9181 268.3294 0001643  95.3648 264.7673 13.21824317142101
ONEWEB-0550             
1 56052U 23043G   26046.13002001 -.00000064  00000+0 -18567-3 0  9996
2 56052  87.9177 268.3270 0001575  84.1767 275.9546 13.21826754142103
ONEWEB-0551             
1 56053U 23043H   26046.15926469 -.00000262  00000+0 -73132-3 0  9991
2 56053  87.8966 283.5952 0001596  94.9719 265.1593 13.15548149140354
ONEWEB-0552             
1 56054U 23043J   26046.12508026  .00000098  00000+0  20526-3 0  9998
2 56054  87.9179 268.3362 0001386  93.9610 266.1683 13.21824166142103
ONEWEB-0553             
1 56055U 23043K   26046.05480566 -.00000013  00000+0 -67463-4 0  9990
2 56055  87.8999 253.0816 0001822  82.2549 277.8789 13.16595695142905
ONEWEB-0554             
1 56056U 23043L   26046.11813484  .00000114  00000+0  26451-3 0  9998
2 56056  87.9001 253.0796 0001437  81.7817 278.3477 13.16595517142893
